COSMOS 2426 (717)       
1 29671U 06062B   20114.01227133 -.00000005  00000-0  10000-3 0  9996
2 29671  64.9898 269.7833 0019879 170.3006  54.1161  2.12962308103713
COSMOS 2433 (720)       
1 32275U 07052A   20114.21636534 -.00000066  00000-0  10000-3 0  9998
2 32275  65.9656  30.7605 0003503 283.2539 209.0848  2.13104241 97232
COSMOS 2432 (719)       
1 32276U 07052B   20114.16055968 -.00000066  00000-0  10000-3 0  9999
2 32276  65.9764  30.8498 0012054 331.1894  68.6526  2.13103728 97233
COSMOS 2434 (721)       
1 32393U 07065A   20113.89447813 -.00000007  00000-0  00000-0 0  9997
2 32393  64.5947 268.3225 0005061  89.2822  43.6308  2.13102965 95937
COSMOS 2436 (723)       
1 32395U 07065C   20114.45946326 -.00000002  00000-0  10000-3 0  9994
2 32395  64.6024 268.3529 0014781   8.1757 334.4380  2.13102974 95873
COSMOS 2456 (730)       
1 36111U 09070A   20113.88020740  .00000082  00000-0  00000-0 0  9994
2 36111  64.2212 147.9949 0005752 306.1165 349.2601  2.13102833 80595
COSMOS 2457 (733)       
1 36112U 09070B   20114.14870809  .00000081  00000-0  00000-0 0  9993
2 36112  64.2041 147.8805 0004957 188.7414  76.1613  2.13101459 80607
COSMOS 2459 (731)       
1 36400U 10007A   20114.15261701 -.00000067  00000-0  10000-3 0  9990
2 36400  65.8674  29.7411 0027255 349.3167 309.3315  2.13105100 78955
COSMOS 2461 (735)       
1 36401U 10007B   20113.99165186 -.00000068  00000-0  10000-3 0  9993
2 36401  65.8612  29.7161 0007415  49.5531  34.3288  2.13101983 78959
COSMOS 2460 (732)       
1 36402U 10007C   20114.22174995 -.00000067  00000-0  10000-3 0  9998
2 36402  65.8497  29.6688 0001812 342.4889 317.1488  2.13101347 78958
COSMOS 2464 (736)       
1 37139U 10041C   20114.20804806 -.00000005  00000-0  00000-0 0  9991
2 37139  64.1967 267.7805 0027063  14.5581 222.9397  2.13100772 75026
COSMOS 2474 (742)       
1 37829U 11055A   20114.23243270  .00000081  00000-0  00000-0 0  9991
2 37829  64.5415 148.9852 0010203 248.4818 172.1185  2.13101755 66602
COSMOS 2476 (744)       
1 37867U 11064A   20114.09770190  .00000082  00000-0  00000-0 0  9994
2 37867  64.5224 149.0354 0021039 241.7340 121.7427  2.13101911 65956
COSMOS 2477 (745)       
1 37868U 11064B   20114.15874247  .00000082  00000-0  00000+0 0  9999
2 37868  64.5299 149.0897 0018640 243.3105 345.5216  2.13101799 65903
COSMOS 2475 (743)       
1 37869U 11064C   20114.47856897  .00000081  00000-0  00000+0 0  9995
2 37869  64.5367 149.0786 0022954 262.9947 168.5251  2.13101935 65927
COSMOS 2485 (747)       
1 39155U 13019A   20114.13312904  .00000082  00000-0  00000-0 0  9998
2 39155  64.6890 149.2902 0021357 237.5446 197.6976  2.13101884 54422
COSMOS 2492 (754)       
1 39620U 14012A   20114.20863116 -.00000067  00000-0  10000-3 0  9991
2 39620  65.7405  29.4580 0015386 326.6001 201.6629  2.13103242 47373
COSMOS 2500 (755)       
1 40001U 14032A   20114.08178897 -.00000068  00000-0  00000+0 0  9995
2 40001  65.6812  29.3830 0005150 220.4910  71.1362  2.13102674 45587
COSMOS 2501 (702K)      
1 40315U 14075A   20114.50532602 -.00000003  00000-0  00000+0 0  9994
2 40315  63.9130 268.7352 0015267 203.5491 208.4272  2.13098587 42009
COSMOS 2514 (751)       
1 41330U 16008A   20114.11359260 -.00000068  00000-0  00000+0 0  9995
2 41330  65.4835  29.2692 0008795 225.0093 273.3346  2.13103004 32753
COSMOS 2516 (753)       
1 41554U 16032A   20114.11532610 -.00000006  00000-0  00000-0 0  9995
2 41554  64.1369 268.8057 0011018 211.9433 178.4814  2.13101648 30361
COSMOS 2522 (752)       
1 42939U 17055A   20114.07815758 -.00000006  00000-0  00000-0 0  9991
2 42939  64.3697 268.9696 0005344 245.3443 343.1362  2.13101902 20116
COSMOS 2527 (756)       
1 43508U 18053A   20114.44192824  .00000081  00000-0  00000+0 0  9997
2 43508  64.8542 149.1167 0008873 241.1693 298.1043  2.13102615 14410
COSMOS 2529 (757)       
1 43687U 18086A   20114.39075235 -.00000003  00000-0  00000+0 0  9996
2 43687  64.5830 269.0655 0007926 275.9456 147.9662  2.13102022 11438
COSMOS 2534 (758)       
1 44299U 19030A   20114.18325590 -.00000004  00000-0  00000+0 0  9996
2 44299  64.6507 268.8833 0011367 296.2856 103.5066  2.13101930  7077
